0 OPS 4682 DEB
1 38397U 65027DA  13285.35753239  .00000832  00000-0  28098-2 0  1035
2 38397 090.2888 259.0202 0007448 243.8015 116.2341 12.98236253734871
0 OPS 4682 DEB
1 38397U 65027DA  13286.35942766  .00001095  00000-0  37076-2 0  1040
2 38397 090.3001 259.0593 0014014 235.6382 124.3414 12.98238403735001
0 OPS 4682 DEB
1 38397U 65027DA  13287.36133551  .00000963  00000-0  32562-2 0  1055
2 38397 090.3049 259.0894 0017543 232.4942 127.4585 12.98242088735135
0 OPS 4682 DEB
1 38397U 65027DA  13288.36319446  .00000769  00000-0  25906-2 0  1064
2 38397 090.3104 259.1139 0031888 236.2717 123.5364 12.98250927735267
0 OPS 4682 DEB
1 38397U 65027DA  13289.90457718  .00000261  00000-0  86381-3 0  1073
2 38397 090.2988 259.1620 0038224 232.9693 126.7929 12.98256691735466
0 OPS 4682 DEB
1 38397U 65027DA  13292.37082554 -.00000325  00000-0 -11278-2 0  1086
2 38397 090.2986 259.2303 0038596 226.2197 133.5729 12.98260987735782
